start=new Date('2022-02-19T00:00:00.000Z').valueOf();
sats=[{"EPOCH":"2022-02-18T22:00:00.999936","REF_FRAME":"TEME","GP_ID":"196307687","OBJECT_ID":"2021-082K","MEAN_ANOMALY":"138.7341","REV_AT_EPOCH":"2486","TLE_LINE2":"2 49139  69.9989  43.3391 0003517 285.1241 138.7341 15.69772033 24860","RCS_SIZE":"LARGE","SEMIMAJOR_AXIS":"6737.686","INCLINATION":"69.9989","OBJECT_TYPE":"PAYLOAD","MEAN_MOTION_DOT":"-0.00021164","MEAN_ELEMENT_THEORY":"SGP4","MEAN_MOTION":"15.69772033","PERIOD":"91.733","RA_OF_ASC_NODE":"43.3391","SITE":"AFWTR","COUNTRY_CODE":"US","NORAD_CAT_ID":"49139","ECCENTRICITY":"0.00035170","EPHEMERIS_TYPE":"0","DECAY_DATE":null,"ARG_OF_PERICENTER":"285.1241","OBJECT_NAME":"STARLINK-3057","TLE_LINE1":"1 49139U 21082K   22049.91667824 -.00021164  00000-0 -17578-3 0  9996","APOAPSIS":"361.921","CENTER_NAME":"EARTH","CLASSIFICATION_TYPE":"U","FILE":"3306955","BSTAR":"-0.00017578000000","TIME_SYSTEM":"UTC","LAUNCH_DATE":"2021-09-14","MEAN_MOTION_DDOT":"0.0000000000000","ELEMENT_SET_NO":"999","PERIAPSIS":"357.182"},{"PERIAPSIS":"356.930","ELEMENT_SET_NO":"999","MEAN_MOTION_DDOT":"0.0000000000000","LAUNCH_DATE":"2021-09-14","TIME_SYSTEM":"UTC","FILE":"3306955","BSTAR":"-0.00002049300000","CLASSIFICATION_TYPE":"U","CENTER_NAME":"EARTH","APOAPSIS":"362.309","TLE_LINE1":"1 49140U 21082L   22049.91667824 -.00002658  00000-0 -20493-4 0  9996","OBJECT_NAME":"STARLINK-3118","DECAY_DATE":null,"ARG_OF_PERICENTER":"289.5459","EPHEMERIS_TYPE":"0","NORAD_CAT_ID":"49140","COUNTRY_CODE":"US","ECCENTRICITY":"0.00039920","SITE":"AFWTR","RA_OF_ASC_NODE":"43.3460","PERIOD":"91.734","MEAN_MOTION":"15.69748081","MEAN_MOTION_DOT":"-0.00002658","MEAN_ELEMENT_THEORY":"SGP4","OBJECT_TYPE":"PAYLOAD","INCLINATION":"69.9998","SEMIMAJOR_AXIS":"6737.755","RCS_SIZE":"LARGE","TLE_LINE2":"2 49140  69.9998  43.3460 0003992 289.5459 140.4628 15.69748081 24869","REV_AT_EPOCH":"2486","MEAN_ANOMALY":"140.4628","OBJECT_ID":"2021-082L","REF_FRAME":"TEME","GP_ID":"196308186","EPOCH":"2022-02-18T22:00:00.999936"},{"ELEMENT_SET_NO":"999","PERIAPSIS":"569.798","TIME_SYSTEM":"UTC","MEAN_MOTION_DDOT":"0.0000000000000","LAUNCH_DATE":"2021-09-14","BSTAR":"0.00588590000000","FILE":"3307132","CLASSIFICATION_TYPE":"U","CENTER_NAME":"EARTH","DECAY_DATE":null,"ARG_OF_PERICENTER":"277.2550","EPHEMERIS_TYPE":"0","NORAD_CAT_ID":"49141","COUNTRY_CODE":"US","ECCENTRICITY":"0.00034570","APOAPSIS":"574.603","TLE_LINE1":"1 49141U 21082M   22049.91667824  .00070768  00000-0  58859-2 0  9997","OBJECT_NAME":"STARLINK-3093","PERIOD":"96.110","MEAN_MOTION":"14.98283923","SITE":"AFWTR","RA_OF_ASC_NODE":"65.4816","OBJECT_TYPE":"PAYLOAD","INCLINATION":"69.9996","SEMIMAJOR_AXIS":"6950.335","RCS_SIZE":"LARGE","MEAN_ELEMENT_THEORY":"SGP4","MEAN_MOTION_DOT":"0.00070768","MEAN_ANOMALY":"141.0455","REV_AT_EPOCH":"357","OBJECT_ID":"2021-082M","TLE_LINE2":"2 49141  69.9996  65.4816 0003457 277.2550 141.0455 14.98283923  3570","EPOCH":"2022-02-18T22:00:00.999936","GP_ID":"196335223","REF_FRAME":"TEME"},{"EPOCH":"2022-02-18T22:00:00.999936","GP_ID":"196335970","REF_FRAME":"TEME","OBJECT_ID":"2021-082N","MEAN_ANOMALY":"145.7679","REV_AT_EPOCH":"368","TLE_LINE2":"2 49142  69.9989  43.3282 0003547 286.5871 145.7679 15.69739545  3680","RCS_SIZE":"LARGE","SEMIMAJOR_AXIS":"6737.779","INCLINATION":"69.9989","OBJECT_TYPE":"PAYLOAD","MEAN_MOTION_DOT":"0.00067217","MEAN_ELEMENT_THEORY":"SGP4","MEAN_MOTION":"15.69739545","PERIOD":"91.735","RA_OF_ASC_NODE":"43.3282","SITE":"AFWTR","NORAD_CAT_ID":"49142","COUNTRY_CODE":"US","ECCENTRICITY":"0.00035470","EPHEMERIS_TYPE":"0","DECAY_DATE":null,"ARG_OF_PERICENTER":"286.5871","OBJECT_NAME":"STARLINK-3042","TLE_LINE1":"1 49142U 21082N   22049.91667824  .00067217  00000-0  56055-3 0  9990","APOAPSIS":"362.034","CENTER_NAME":"EARTH","FILE":"3307132","CLASSIFICATION_TYPE":"U","BSTAR":"0.00056055000000","TIME_SYSTEM":"UTC","LAUNCH_DATE":"2021-09-14","MEAN_MOTION_DDOT":"0.0000000000000","ELEMENT_SET_NO":"999","PERIAPSIS":"357.254"},{"CENTER_NAME":"EARTH","FILE":"3307132","BSTAR":"-0.02572800000000","CLASSIFICATION_TYPE":"U","EPHEMERIS_TYPE":"0","ECCENTRICITY":"0.00034000","COUNTRY_CODE":"US","NORAD_CAT_ID":"49143","DECAY_DATE":null,"ARG_OF_PERICENTER":"276.8974","TLE_LINE1":"1 49143U 21082P   22049.91667824 -.00657566  00000-0 -25728-1 0  9996","OBJECT_NAME":"STARLINK-3109","APOAPSIS":"483.673","ELEMENT_SET_NO":"999","PERIAPSIS":"479.009","TIME_SYSTEM":"UTC","LAUNCH_DATE":"2021-09-14","MEAN_MOTION_DDOT":"0.0000000000000","OBJECT_ID":"2021-082P","REV_AT_EPOCH":"364","MEAN_ANOMALY":"98.2639","TLE_LINE2":"2 49143  69.9998  45.8052 0003400 276.8974  98.2639 15.28151318  3642","EPOCH":"2022-02-18T22:00:00.999936","REF_FRAME":"TEME","GP_ID":"196334222","PERIOD":"94.232","MEAN_MOTION":"15.28151318","RA_OF_ASC_NODE":"45.8052","SITE":"AFWTR","SEMIMAJOR_AXIS":"6859.476","RCS_SIZE":"LARGE","OBJECT_TYPE":"PAYLOAD","INCLINATION":"69.9998","MEAN_MOTION_DOT":"-0.00657566","MEAN_ELEMENT_THEORY":"SGP4"},{"TLE_LINE2":"2 49144  70.0003  65.4855 0003333 278.8697 165.0967 14.98298871 24328","OBJECT_ID":"2021-082Q","REV_AT_EPOCH":"2432","MEAN_ANOMALY":"165.0967","REF_FRAME":"TEME","GP_ID":"196308187","EPOCH":"2022-02-18T22:00:00.999936","RA_OF_ASC_NODE":"65.4855","SITE":"AFWTR","MEAN_MOTION":"14.98298871","PERIOD":"96.109","MEAN_MOTION_DOT":"0.00068379","MEAN_ELEMENT_THEORY":"SGP4","RCS_SIZE":"LARGE","SEMIMAJOR_AXIS":"6950.289","INCLINATION":"70.0003","OBJECT_TYPE":"PAYLOAD","CENTER_NAME":"EARTH","CLASSIFICATION_TYPE":"U","FILE":"3306955","BSTAR":"0.00568730000000","OBJECT_NAME":"STARLINK-3100","TLE_LINE1":"1 49144U 21082Q   22049.91667824  .00068379  00000-0  56873-2 0  9999","APOAPSIS":"574.471","COUNTRY_CODE":"US","NORAD_CAT_ID":"49144","ECCENTRICITY":"0.00033330","EPHEMERIS_TYPE":"0","DECAY_DATE":null,"ARG_OF_PERICENTER":"278.8697","PERIAPSIS":"569.838","ELEMENT_SET_NO":"999","LAUNCH_DATE":"2021-09-14","MEAN_MOTION_DDOT":"0.0000000000000","TIME_SYSTEM":"UTC"},{"EPOCH":"2022-02-18T22:00:00.999936","REF_FRAME":"TEME","GP_ID":"196335723","OBJECT_ID":"2021-082R","REV_AT_EPOCH":"368","MEAN_ANOMALY":"159.4431","TLE_LINE2":"2 49145  69.9996  43.3195 0003742 283.5770 159.4431 15.69733439  3680","RCS_SIZE":"LARGE","SEMIMAJOR_AXIS":"6737.797","INCLINATION":"69.9996","OBJECT_TYPE":"PAYLOAD","MEAN_MOTION_DOT":"-0.00002148","MEAN_ELEMENT_THEORY":"SGP4","MEAN_MOTION":"15.69733439","PERIOD":"91.735","RA_OF_ASC_NODE":"43.3195","SITE":"AFWTR","COUNTRY_CODE":"US","NORAD_CAT_ID":"49145","ECCENTRICITY":"0.00037420","EPHEMERIS_TYPE":"0","DECAY_DATE":null,"ARG_OF_PERICENTER":"283.5770","OBJECT_NAME":"STARLINK-3119","TLE_LINE1":"1 49145U 21082R   22049.91667824 -.00002148  00000-0 -16224-4 0  9992","APOAPSIS":"362.183","CENTER_NAME":"EARTH","BSTAR":"-0.00001622400000","FILE":"3307132","CLASSIFICATION_TYPE":"U","TIME_SYSTEM":"UTC","LAUNCH_DATE":"2021-09-14","MEAN_MOTION_DDOT":"0.0000000000000","ELEMENT_SET_NO":"999","PERIAPSIS":"357.140"},{"MEAN_ANOMALY":"109.7247","REV_AT_EPOCH":"364","OBJECT_ID":"2021-082S","TLE_LINE2":"2 49146  69.9998  45.8039 0003477 280.8687 109.7247 15.28236286  3641","EPOCH":"2022-02-18T22:00:00.999936","GP_ID":"196335471","REF_FRAME":"TEME","PERIOD":"94.226","MEAN_MOTION":"15.28236286","SITE":"AFWTR","RA_OF_ASC_NODE":"45.8039","OBJECT_TYPE":"PAYLOAD","INCLINATION":"69.9998","SEMIMAJOR_AXIS":"6859.222","RCS_SIZE":"LARGE","MEAN_ELEMENT_THEORY":"SGP4","MEAN_MOTION_DOT":"-0.00657528","FILE":"3307132","CLASSIFICATION_TYPE":"U","BSTAR":"-0.02565900000000","CENTER_NAME":"EARTH","DECAY_DATE":null,"ARG_OF_PERICENTER":"280.8687","EPHEMERIS_TYPE":"0","ECCENTRICITY":"0.00034770","COUNTRY_CODE":"US","NORAD_CAT_ID":"49146","APOAPSIS":"483.472","TLE_LINE1":"1 49146U 21082S   22049.91667824 -.00657528  00000-0 -25659-1 0  9990","OBJECT_NAME":"STARLINK-3116","ELEMENT_SET_NO":"999","PERIAPSIS":"478.702","TIME_SYSTEM":"UTC","MEAN_MOTION_DDOT":"0.0000000000000","LAUNCH_DATE":"2021-09-14"},{"MEAN_ELEMENT_THEORY":"SGP4","MEAN_MOTION_DOT":"0.00080567","RCS_SIZE":"LARGE","SEMIMAJOR_AXIS":"6737.893","INCLINATION":"69.9993","OBJECT_TYPE":"PAYLOAD","RA_OF_ASC_NODE":"43.3265","SITE":"AFWTR","MEAN_MOTION":"15.69699825","PERIOD":"91.737","GP_ID":"196301372","REF_FRAME":"TEME","EPOCH":"2022-02-18T22:00:00.999936","TLE_LINE2":"2 49147  69.9993  43.3265 0003722 286.2530 150.3912 15.69699825 26037","OBJECT_ID":"2021-082T","MEAN_ANOMALY":"150.3912","REV_AT_EPOCH":"2603","LAUNCH_DATE":"2021-09-14","MEAN_MOTION_DDOT":"0.0000000000000","TIME_SYSTEM":"UTC","PERIAPSIS":"357.250","ELEMENT_SET_NO":"999","OBJECT_NAME":"STARLINK-3071","TLE_LINE1":"1 49147U 21082T   22049.91667824  .00080567  00000-0  67154-3 0  9990","APOAPSIS":"362.266","ECCENTRICITY":"0.00037220","COUNTRY_CODE":"US","NORAD_CAT_ID":"49147","EPHEMERIS_TYPE":"0","DECAY_DATE":null,"ARG_OF_PERICENTER":"286.2530","CENTER_NAME":"EARTH","FILE":"3306691","BSTAR":"0.00067154000000","CLASSIFICATION_TYPE":"U"},{"RCS_SIZE":"LARGE","SEMIMAJOR_AXIS":"6858.967","INCLINATION":"69.9998","OBJECT_TYPE":"PAYLOAD","MEAN_ELEMENT_THEORY":"SGP4","MEAN_MOTION_DOT":"-0.00657805","MEAN_MOTION":"15.28321419","PERIOD":"94.221","RA_OF_ASC_NODE":"45.8026","SITE":"AFWTR","EPOCH":"2022-02-18T22:00:00.999936","REF_FRAME":"TEME","GP_ID":"196334972","OBJECT_ID":"2021-082U","REV_AT_EPOCH":"364","MEAN_ANOMALY":"127.7409","TLE_LINE2":"2 49148  69.9998  45.8026 0003433 278.2662 127.7409 15.28321419  3648","TIME_SYSTEM":"UTC","LAUNCH_DATE":"2021-09-14","MEAN_MOTION_DDOT":"0.0000000000000","ELEMENT_SET_NO":"999","PERIAPSIS":"478.477","NORAD_CAT_ID":"49148","COUNTRY_CODE":"US","ECCENTRICITY":"0.00034330","EPHEMERIS_TYPE":"0","DECAY_DATE":null,"ARG_OF_PERICENTER":"278.2662","OBJECT_NAME":"STARLINK-3048","TLE_LINE1":"1 49148U 21082U   22049.91667824 -.00657805  00000-0 -25604-1 0  9990","APOAPSIS":"483.187","CENTER_NAME":"EARTH","CLASSIFICATION_TYPE":"U","FILE":"3307132","BSTAR":"-0.02560400000000"}];
